{
    "week": 293,
    "satellites": [
        {
            "Name": "BEIDOU-3 M13 (C32)",
            "Line1": "1 43622U 18072A   24317.47716554  .00000001  00000+0  00000+0 0  9990",
            "Line2": "2 43622  56.1173  81.9391 0004569 292.4165  67.5155  1.86230990 41828",
            "SatelliteNumber": "43622",
            "Classification": "U",
            "LaunchYear": "18",
            "LaunchNumber": "072",
            "PieceOfLaunch": "A",
            "EpochYear": "24",
            "EpochDay": 317.47716554,
            "FirstDerivativeMeanMotion": 1e-08,
            "SecondDerivativeMeanMotion": "00000+0",
            "BSTAR": "00000+0",
            "SetNumber": "999",
            "Inclination": 56.1173,
            "RAAN": 81.9391,
            "Eccentricity": 0.0004569,
            "ArgumentOfPerigee": 292.4165,
            "MeanAnomaly": 67.5155,
            "MeanMotion": 1.8623099,
            "RevolutionNumber": "4182"
        },
        {
            "Name": "BEIDOU-3 M14 (C33)",
            "Line1": "1 43623U 18072B   24321.10128915 -.00000034  00000+0  00000+0 0  9991",
            "Line2": "2 43623  56.1222  81.8118 0002354 339.0211  20.9376  1.86230975 41887",
            "SatelliteNumber": "43623",
            "Classification": "U",
            "LaunchYear": "18",
            "LaunchNumber": "072",
            "PieceOfLaunch": "B",
            "EpochYear": "24",
            "EpochDay": 321.10128915,
            "FirstDerivativeMeanMotion": -3.4e-07,
            "SecondDerivativeMeanMotion": "00000+0",
            "BSTAR": "00000+0",
            "SetNumber": "999",
            "Inclination": 56.1222,
            "RAAN": 81.8118,
            "Eccentricity": 0.0002354,
            "ArgumentOfPerigee": 339.0211,
            "MeanAnomaly": 20.9376,
            "MeanMotion": 1.86230975,
            "RevolutionNumber": "4188"
        },
        {
            "Name": "BEIDOU-3 M16 (C35)",
            "Line1": "1 43647U 18078A   24321.26308971 -.00000076  00000+0  00000+0 0  9998",
            "Line2": "2 43647  54.5980 320.1608 0006565   7.1273 352.8894  1.86232154 41409",
            "SatelliteNumber": "43647",
            "Classification": "U",
            "LaunchYear": "18",
            "LaunchNumber": "078",
            "PieceOfLaunch": "A",
            "EpochYear": "24",
            "EpochDay": 321.26308971,
            "FirstDerivativeMeanMotion": -7.6e-07,
            "SecondDerivativeMeanMotion": "00000+0",
            "BSTAR": "00000+0",
            "SetNumber": "999",
            "Inclination": 54.598,
            "RAAN": 320.1608,
            "Eccentricity": 0.0006565,
            "ArgumentOfPerigee": 7.1273,
            "MeanAnomaly": 352.8894,
            "MeanMotion": 1.86232154,
            "RevolutionNumber": "4140"
        },
        {
            "Name": "BEIDOU-3 M15 (C34)",
            "Line1": "1 43648U 18078B   24321.39222148 -.00000077  00000+0  00000+0 0  9995",
            "Line2": "2 43648  54.5936 320.1585 0003247   2.7397 357.2690  1.86232056 41423",
            "SatelliteNumber": "43648",
            "Classification": "U",
            "LaunchYear": "18",
            "LaunchNumber": "078",
            "PieceOfLaunch": "B",
            "EpochYear": "24",
            "EpochDay": 321.39222148,
            "FirstDerivativeMeanMotion": -7.7e-07,
            "SecondDerivativeMeanMotion": "00000+0",
            "BSTAR": "00000+0",
            "SetNumber": "999",
            "Inclination": 54.5936,
            "RAAN": 320.1585,
            "Eccentricity": 0.0003247,
            "ArgumentOfPerigee": 2.7397,
            "MeanAnomaly": 357.269,
            "MeanMotion": 1.86232056,
            "RevolutionNumber": "4142"
        },
        {
            "Name": "BEIDOU-3 G1 (C59)",
            "Line1": "1 43683U 18085A   24321.74942692 -.00000270  00000+0  00000+0 0  9999",
            "Line2": "2 43683   2.5679 104.1380 0001760  59.3644 302.6643  1.00272269 22262",
            "SatelliteNumber": "43683",
            "Classification": "U",
            "LaunchYear": "18",
            "LaunchNumber": "085",
            "PieceOfLaunch": "A",
            "EpochYear": "24",
            "EpochDay": 321.74942692,
            "FirstDerivativeMeanMotion": -2.7e-06,
            "SecondDerivativeMeanMotion": "00000+0",
            "BSTAR": "00000+0",
            "SetNumber": "999",
            "Inclination": 2.5679,
            "RAAN": 104.138,
            "Eccentricity": 0.000176,
            "ArgumentOfPerigee": 59.3644,
            "MeanAnomaly": 302.6643,
            "MeanMotion": 1.00272269,
            "RevolutionNumber": "2226"
        },
        {
            "Name": "BEIDOU-3 M17 (C36)",
            "Line1": "1 43706U 18093A   24321.00788648  .00000060  00000+0  00000+0 0  9998",
            "Line2": "2 43706  54.1978 201.9169 0007176 296.8508  63.1732  1.86228213 40754",
            "SatelliteNumber": "43706",
            "Classification": "U",
            "LaunchYear": "18",
            "LaunchNumber": "093",
            "PieceOfLaunch": "A",
            "EpochYear": "24",
            "EpochDay": 321.00788648,
            "FirstDerivativeMeanMotion": 6e-07,
            "SecondDerivativeMeanMotion": "00000+0",
            "BSTAR": "00000+0",
            "SetNumber": "999",
            "Inclination": 54.1978,
            "RAAN": 201.9169,
            "Eccentricity": 0.0007176,
            "ArgumentOfPerigee": 296.8508,
            "MeanAnomaly": 63.1732,
            "MeanMotion": 1.86228213,
            "RevolutionNumber": "4075"
        },
        {
            "Name": "BEIDOU-3 M18 (C37)",
            "Line1": "1 43707U 18093B   24320.33502716  .00000063  00000+0  00000+0 0  9997",
            "Line2": "2 43707  54.1987 201.9316 0006647 334.6174  25.4457  1.86229735 40756",
            "SatelliteNumber": "43707",
            "Classification": "U",
            "LaunchYear": "18",
            "LaunchNumber": "093",
            "PieceOfLaunch": "B",
            "EpochYear": "24",
            "EpochDay": 320.33502716,
            "FirstDerivativeMeanMotion": 6.3e-07,
            "SecondDerivativeMeanMotion": "00000+0",
            "BSTAR": "00000+0",
            "SetNumber": "999",
            "Inclination": 54.1987,
            "RAAN": 201.9316,
            "Eccentricity": 0.0006647,
            "ArgumentOfPerigee": 334.6174,
            "MeanAnomaly": 25.4457,
            "MeanMotion": 1.86229735,
            "RevolutionNumber": "4075"
        },
        {
            "Name": "BEIDOU-3 IGSO-1 (C38)",
            "Line1": "1 44204U 19023A   24321.61273132 -.00000241  00000+0  00000+0 0  9992",
            "Line2": "2 44204  57.8686  43.6352 0024921 210.8826 139.3896  1.00255476 20566",
            "SatelliteNumber": "44204",
            "Classification": "U",
            "LaunchYear": "19",
            "LaunchNumber": "023",
            "PieceOfLaunch": "A",
            "EpochYear": "24",
            "EpochDay": 321.61273132,
            "FirstDerivativeMeanMotion": -2.41e-06,
            "SecondDerivativeMeanMotion": "00000+0",
            "BSTAR": "00000+0",
            "SetNumber": "999",
            "Inclination": 57.8686,
            "RAAN": 43.6352,
            "Eccentricity": 0.0024921,
            "ArgumentOfPerigee": 210.8826,
            "MeanAnomaly": 139.3896,
            "MeanMotion": 1.00255476,
            "RevolutionNumber": "2056"
        },
        {
            "Name": "BEIDOU-2 G8 (C01)",
            "Line1": "1 44231U 19027A   24321.17851069 -.00000240  00000+0  00000+0 0  9997",
            "Line2": "2 44231   1.8539  74.6653 0004843 194.9635 354.9393  1.00269567 20283",
            "SatelliteNumber": "44231",
            "Classification": "U",
            "LaunchYear": "19",
            "LaunchNumber": "027",
            "PieceOfLaunch": "A",
            "EpochYear": "24",
            "EpochDay": 321.17851069,
            "FirstDerivativeMeanMotion": -2.4e-06,
            "SecondDerivativeMeanMotion": "00000+0",
            "BSTAR": "00000+0",
            "SetNumber": "999",
            "Inclination": 1.8539,
            "RAAN": 74.6653,
            "Eccentricity": 0.0004843,
            "ArgumentOfPerigee": 194.9635,
            "MeanAnomaly": 354.9393,
            "MeanMotion": 1.00269567,
            "RevolutionNumber": "2028"
        },
        {
            "Name": "BEIDOU-3 IGSO-2 (C39)",
            "Line1": "1 44337U 19035A   24318.49459097 -.00000044  00000+0  00000+0 0  9991",
            "Line2": "2 44337  55.1855 163.9603 0034849 201.0361 342.2681  1.00250215 19845",
            "SatelliteNumber": "44337",
            "Classification": "U",
            "LaunchYear": "19",
            "LaunchNumber": "035",
            "PieceOfLaunch": "A",
            "EpochYear": "24",
            "EpochDay": 318.49459097,
            "FirstDerivativeMeanMotion": -4.4e-07,
            "SecondDerivativeMeanMotion": "00000+0",
            "BSTAR": "00000+0",
            "SetNumber": "999",
            "Inclination": 55.1855,
            "RAAN": 163.9603,
            "Eccentricity": 0.0034849,
            "ArgumentOfPerigee": 201.0361,
            "MeanAnomaly": 342.2681,
            "MeanMotion": 1.00250215,
            "RevolutionNumber": "1984"
        }
    ]
}